{
  "norad_id": 67839,
  "name": "STARLINK-36652",
  "history": [
    {
      "epoch": "2026-03-28T22:00:01.999584Z",
      "apogee_km": 481.38695749315684,
      "perigee_km": 479.6790114936184,
      "latitude_deg": -20.84841025396793,
      "longitude_deg": -21.677986871290056,
      "height_km": 484.64566941950756,
      "semi_major_axis_km": 6858.669984493387,
      "eccentricity": 0.00012451,
      "inclination_deg": 43.0015,
      "raan_deg": 158.6216,
      "arg_perigee_deg": 283.2664,
      "mean_anomaly_deg": 45.5214,
      "mean_motion_rev_day": 15.28420669
    },
    {
      "epoch": "2026-03-29T04:00:01.999584Z",
      "apogee_km": 481.60844804960834,
      "perigee_km": 479.6633000625261,
      "latitude_deg": -43.02840680663265,
      "longitude_deg": 175.1434576058402,
      "height_km": 492.95945385345266,
      "semi_major_axis_km": 6858.772874056067,
      "eccentricity": 0.0001418,
      "inclination_deg": 43.0012,
      "raan_deg": 157.2082,
      "arg_perigee_deg": 269.3055,
      "mean_anomaly_deg": 356.6745,
      "mean_motion_rev_day": 15.28386277
    },
    {
      "epoch": "2026-03-30T00:00:01.999296Z",
      "apogee_km": 481.80460587302696,
      "perigee_km": 479.4547924019016,
      "latitude_deg": 2.2930023513807156,
      "longitude_deg": 142.64255654877692,
      "height_km": 480.01538919158367,
      "semi_major_axis_km": 6858.766699137464,
      "eccentricity": 0.0001713,
      "inclination_deg": 43.0016,
      "raan_deg": 152.4962,
      "arg_perigee_deg": 260.6497,
      "mean_anomaly_deg": 275.9417,
      "mean_motion_rev_day": 15.28388341
    }
  ]
}